[{"OBJECT_NAME":"STARLINK-30436","OBJECT_ID":"2023-144S","EPOCH":"2025-09-29T11:46:40.728288","MEAN_MOTION":15.02546991,"ECCENTRICITY":0.00029321,"INCLINATION":43.0039,"RA_OF_ASC_NODE":83.2551,"ARG_OF_PERICENTER":283.5196,"MEAN_ANOMALY":76.5319,"EPHEMERIS_TYPE":0,"CLASSIFICATION_TYPE":"U","NORAD_CAT_ID":57880,"ELEMENT_SET_NO":999,"REV_AT_EPOCH":11336,"BSTAR":0.00015799828,"MEAN_MOTION_DOT":1.932e-5,"MEAN_MOTION_DDOT":0},{"OBJECT_NAME":"STARLINK-30339","OBJECT_ID":"2023-144U","EPOCH":"2025-09-29T19:40:31.764576","MEAN_MOTION":15.02540732,"ECCENTRICITY":0.0001263,"INCLINATION":43.0029,"RA_OF_ASC_NODE":81.4262,"ARG_OF_PERICENTER":303.7432,"MEAN_ANOMALY":56.329,"EPHEMERIS_TYPE":0,"CLASSIFICATION_TYPE":"U","NORAD_CAT_ID":57882,"ELEMENT_SET_NO":999,"REV_AT_EPOCH":11341,"BSTAR":0.00011804,"MEAN_MOTION_DOT":1.391e-5,"MEAN_MOTION_DDOT":0},{"OBJECT_NAME":"STARLINK-30282","OBJECT_ID":"2023-144V","EPOCH":"2025-09-28T21:12:20.747808","MEAN_MOTION":15.02538307,"ECCENTRICITY":0.00015703,"INCLINATION":43.0043,"RA_OF_ASC_NODE":86.4425,"ARG_OF_PERICENTER":275.4279,"MEAN_ANOMALY":84.6385,"EPHEMERIS_TYPE":0,"CLASSIFICATION_TYPE":"U","NORAD_CAT_ID":57883,"ELEMENT_SET_NO":999,"REV_AT_EPOCH":11327,"BSTAR":5.2179971e-5,"MEAN_MOTION_DOT":5.01e-6,"MEAN_MOTION_DDOT":0},{"OBJECT_NAME":"STARLINK-30340","OBJECT_ID":"2023-144W","EPOCH":"2025-09-29T13:03:14.836608","MEAN_MOTION":15.02492651,"ECCENTRICITY":0.0001569,"INCLINATION":43.0037,"RA_OF_ASC_NODE":82.7855,"ARG_OF_PERICENTER":252.0791,"MEAN_ANOMALY":107.988,"EPHEMERIS_TYPE":0,"CLASSIFICATION_TYPE":"U","NORAD_CAT_ID":57884,"ELEMENT_SET_NO":999,"REV_AT_EPOCH":11337,"BSTAR":0.00070899512,"MEAN_MOTION_DOT":9.376e-5,"MEAN_MOTION_DDOT":0},{"OBJECT_NAME":"STARLINK-30279","OBJECT_ID":"2023-144X","EPOCH":"2025-09-29T19:30:57.019680","MEAN_MOTION":15.02531114,"ECCENTRICITY":0.0001008,"INCLINATION":43.0022,"RA_OF_ASC_NODE":81.3719,"ARG_OF_PERICENTER":255.1553,"MEAN_ANOMALY":104.9178,"EPHEMERIS_TYPE":0,"CLASSIFICATION_TYPE":"U","NORAD_CAT_ID":57885,"ELEMENT_SET_NO":999,"REV_AT_EPOCH":11335,"BSTAR":3.3181e-5,"MEAN_MOTION_DOT":2.45e-6,"MEAN_MOTION_DDOT":0},{"OBJECT_NAME":"STARLINK-30465","OBJECT_ID":"2023-146A","EPOCH":"2025-09-29T14:47:52.896480","MEAN_MOTION":15.02537672,"ECCENTRICITY":8.818e-5,"INCLINATION":43.0031,"RA_OF_ASC_NODE":108.8294,"ARG_OF_PERICENTER":242.899,"MEAN_ANOMALY":117.1763,"EPHEMERIS_TYPE":0,"CLASSIFICATION_TYPE":"U","NORAD_CAT_ID":57891,"ELEMENT_SET_NO":999,"REV_AT_EPOCH":11283,"BSTAR":5.448731e-5,"MEAN_MOTION_DOT":5.33e-6,"MEAN_MOTION_DDOT":0},{"OBJECT_NAME":"STARLINK-30470","OBJECT_ID":"2023-146B","EPOCH":"2025-09-29T22:41:43.259712","MEAN_MOTION":15.02540011,"ECCENTRICITY":9.91e-5,"INCLINATION":43.0025,"RA_OF_ASC_NODE":106.9978,"ARG_OF_PERICENTER":268.7007,"MEAN_ANOMALY":91.3721,"EPHEMERIS_TYPE":0,"CLASSIFICATION_TYPE":"U","NORAD_CAT_ID":57892,"ELEMENT_SET_NO":999,"REV_AT_EPOCH":11288,"BSTAR":8.3164e-5,"MEAN_MOTION_DOT":9.2e-6,"MEAN_MOTION_DDOT":0},{"OBJECT_NAME":"STARLINK-30473","OBJECT_ID":"2023-146C","EPOCH":"2025-09-30T06:06:47.395872","MEAN_MOTION":15.02539038,"ECCENTRICITY":0.00010873,"INCLINATION":43.0008,"RA_OF_ASC_NODE":104.9638,"ARG_OF_PERICENTER":277.7009,"MEAN_ANOMALY":82.3709,"EPHEMERIS_TYPE":0,"CLASSIFICATION_TYPE":"U","NORAD_CAT_ID":57893,"ELEMENT_SET_NO":999,"REV_AT_EPOCH":11293,"BSTAR":2.9350185e-5,"MEAN_MOTION_DOT":1.93e-6,"MEAN_MOTION_DDOT":0},{"OBJECT_NAME":"STARLINK-30443","OBJECT_ID":"2023-146D","EPOCH":"2025-09-29T20:56:25.046304","MEAN_MOTION":15.02534822,"ECCENTRICITY":8.57e-5,"INCLINATION":43.0027,"RA_OF_ASC_NODE":107.3143,"ARG_OF_PERICENTER":327.6454,"MEAN_ANOMALY":32.4335,"EPHEMERIS_TYPE":0,"CLASSIFICATION_TYPE":"U","NORAD_CAT_ID":57894,"ELEMENT_SET_NO":999,"REV_AT_EPOCH":11287,"BSTAR":-6.5074e-5,"MEAN_MOTION_DOT":-1.082e-5,"MEAN_MOTION_DDOT":0},{"OBJECT_NAME":"STARLINK-30467","OBJECT_ID":"2023-146E","EPOCH":"2025-09-29T14:38:17.489760","MEAN_MOTION":15.02534803,"ECCENTRICITY":0.00011297,"INCLINATION":43.0039,"RA_OF_ASC_NODE":108.7823,"ARG_OF_PERICENTER":264.7454,"MEAN_ANOMALY":95.326,"EPHEMERIS_TYPE":0,"CLASSIFICATION_TYPE":"U","NORAD_CAT_ID":57895,"ELEMENT_SET_NO":999,"REV_AT_EPOCH":11283,"BSTAR":2.0590397e-5,"MEAN_MOTION_DOT":7.5e-7,"MEAN_MOTION_DDOT":0},{"OBJECT_NAME":"STARLINK-30469","OBJECT_ID":"2023-146F","EPOCH":"2025-09-30T06:25:58.682784","MEAN_MOTION":15.02539524,"ECCENTRICITY":0.00013806,"INCLINATION":43.004,"RA_OF_ASC_NODE":105.1188,"ARG_OF_PERICENTER":269.6837,"MEAN_ANOMALY":90.3847,"EPHEMERIS_TYPE":0,"CLASSIFICATION_TYPE":"U","NORAD_CAT_ID":57896,"ELEMENT_SET_NO":999,"REV_AT_EPOCH":11293,"BSTAR":5.5561882e-5,"MEAN_MOTION_DOT":5.47e-6,"MEAN_MOTION_DDOT":0},{"OBJECT_NAME":"STARLINK-30474","OBJECT_ID":"2023-146G","EPOCH":"2025-09-29T22:19:20.647776","MEAN_MOTION":15.02529783,"ECCENTRICITY":0.0001534,"INCLINATION":43.0041,"RA_OF_ASC_NODE":106.8863,"ARG_OF_PERICENTER":262.9644,"MEAN_ANOMALY":97.1024,"EPHEMERIS_TYPE":0,"CLASSIFICATION_TYPE":"U","NORAD_CAT_ID":57897,"ELEMENT_SET_NO":999,"REV_AT_EPOCH":11288,"BSTAR":0.00018328,"MEAN_MOTION_DOT":2.273e-5,"MEAN_MOTION_DDOT":0},{"OBJECT_NAME":"STARLINK-30479","OBJECT_ID":"2023-146H","EPOCH":"2025-09-29T22:17:44.854368","MEAN_MOTION":15.02538113,"ECCENTRICITY":0.0001764,"INCLINATION":43.0048,"RA_OF_ASC_NODE":106.8758,"ARG_OF_PERICENTER":263.2118,"MEAN_ANOMALY":96.8523,"EPHEMERIS_TYPE":0,"CLASSIFICATION_TYPE":"U","NORAD_CAT_ID":57898,"ELEMENT_SET_NO":999,"REV_AT_EPOCH":11288,"BSTAR":8.5415e-5,"MEAN_MOTION_DOT":9.5e-6,"MEAN_MOTION_DDOT":0},{"OBJECT_NAME":"STARLINK-30481","OBJECT_ID":"2023-146J","EPOCH":"2025-09-29T22:12:57.174336","MEAN_MOTION":15.02538256,"ECCENTRICITY":0.0001485,"INCLINATION":43.0041,"RA_OF_ASC_NODE":106.8516,"ARG_OF_PERICENTER":263.4984,"MEAN_ANOMALY":96.5689,"EPHEMERIS_TYPE":0,"CLASSIFICATION_TYPE":"U","NORAD_CAT_ID":57899,"ELEMENT_SET_NO":999,"REV_AT_EPOCH":11288,"BSTAR":5.9892e-5,"MEAN_MOTION_DOT":6.05e-6,"MEAN_MOTION_DDOT":0},{"OBJECT_NAME":"STARLINK-30457","OBJECT_ID":"2023-146K","EPOCH":"2025-09-30T05:49:12.682560","MEAN_MOTION":15.02540915,"ECCENTRICITY":0.00017062,"INCLINATION":43.0045,"RA_OF_ASC_NODE":104.9308,"ARG_OF_PERICENTER":259.6387,"MEAN_ANOMALY":100.4264,"EPHEMERIS_TYPE":0,"CLASSIFICATION_TYPE":"U","NORAD_CAT_ID":57900,"ELEMENT_SET_NO":999,"REV_AT_EPOCH":11187,"BSTAR":0.0001040153,"MEAN_MOTION_DOT":1.202e-5,"MEAN_MOTION_DDOT":0},{"OBJECT_NAME":"STARLINK-30472","OBJECT_ID":"2023-146L","EPOCH":"2025-09-27T23:08:53.593152","MEAN_MOTION":15.025389,"ECCENTRICITY":0.00010744,"INCLINATION":43.0035,"RA_OF_ASC_NODE":117.0751,"ARG_OF_PERICENTER":282.6336,"MEAN_ANOMALY":77.4386,"EPHEMERIS_TYPE":0,"CLASSIFICATION_TYPE":"U","NORAD_CAT_ID":57901,"ELEMENT_SET_NO":999,"REV_AT_EPOCH":11153,"BSTAR":4.461405e-6,"MEAN_MOTION_DOT":-1.43e-6,"MEAN_MOTION_DDOT":0}]
