STARLINK-30436          
1 57880U 23144S   25272.49074917  .00001932  00000+0  15800-3 0  9992
2 57880  43.0039  83.2551 0002932 283.5196  76.5319 15.02546991113360
STARLINK-30339          
1 57882U 23144U   25272.81981209  .00001391  00000+0  11804-3 0  9990
2 57882  43.0029  81.4262 0001263 303.7432  56.3290 15.02540732113411
STARLINK-30282          
1 57883U 23144V   25271.88357347  .00000501  00000+0  52180-4 0  9992
2 57883  43.0043  86.4425 0001570 275.4279  84.6385 15.02538307113277
STARLINK-30340          
1 57884U 23144W   25272.54392172  .00009376  00000+0  70900-3 0  9990
2 57884  43.0037  82.7855 0001569 252.0791 107.9880 15.02492651113376
STARLINK-30279          
1 57885U 23144X   25272.81315995  .00000245  00000+0  33181-4 0  9996
2 57885  43.0022  81.3719 0001008 255.1553 104.9178 15.02531114113356
STARLINK-30465          
1 57891U 23146A   25272.61658445  .00000533  00000+0  54487-4 0  9995
2 57891  43.0031 108.8294 0000881 242.8990 117.1763 15.02537672112835
STARLINK-30470          
1 57892U 23146B   25272.94563958  .00000920  00000+0  83164-4 0  9990
2 57892  43.0025 106.9978 0000991 268.7007  91.3721 15.02540011112888
STARLINK-30473          
1 57893U 23146C   25273.25471523  .00000193  00000+0  29350-4 0  9991
2 57893  43.0008 104.9638 0001087 277.7009  82.3709 15.02539038112939
STARLINK-30443          
1 57894U 23146D   25272.87251211 -.00001082  00000+0 -65074-4 0  9992
2 57894  43.0027 107.3143 0000857 327.6454  32.4335 15.02534822112872
STARLINK-30467          
1 57895U 23146E   25272.60992465  .00000075  00000+0  20590-4 0  9990
2 57895  43.0039 108.7823 0001129 264.7454  95.3260 15.02534803112830
STARLINK-30469          
1 57896U 23146F   25273.26804031  .00000547  00000+0  55562-4 0  9996
2 57896  43.0040 105.1188 0001380 269.6837  90.3847 15.02539524112938
STARLINK-30474          
1 57897U 23146G   25272.93010009  .00002273  00000+0  18328-3 0  9990
2 57897  43.0041 106.8863 0001534 262.9644  97.1024 15.02529783112883
STARLINK-30479          
1 57898U 23146H   25272.92899137  .00000950  00000+0  85415-4 0  9999
2 57898  43.0048 106.8758 0001764 263.2118  96.8523 15.02538113112886
STARLINK-30481          
1 57899U 23146J   25272.92566174  .00000605  00000+0  59892-4 0  9999
2 57899  43.0041 106.8516 0001485 263.4984  96.5689 15.02538256112883
STARLINK-30457          
1 57900U 23146K   25273.24250790  .00001202  00000+0  10402-3 0  9999
2 57900  43.0045 104.9308 0001706 259.6387 100.4264 15.02540915111875
STARLINK-30472          
1 57901U 23146L   25270.96450918 -.00000143  00000+0  44614-5 0  9998
2 57901  43.0035 117.0751 0001074 282.6336  77.4386 15.02538900111532
